ONEWEB-0229             
1 48779U 21045N   25025.83543276  .00000177  00000+0  43681-3 0  9998
2 48779  87.9089   0.2168 0001649  87.9529 272.1790 13.15548991177701
ONEWEB-0228             
1 48780U 21045P   25025.86792043 -.00000107  00000+0 -31935-3 0  9995
2 48780  87.9087   0.1881 0001715  87.8734 272.2593 13.15548717177622
ONEWEB-0232             
1 48781U 21045Q   25025.84336403  .00000101  00000+0  23556-3 0  9990
2 48781  87.9082   0.1969 0001762  84.6108 275.5223 13.15547930177944
ONEWEB-0231             
1 48782U 21045R   25025.44089154  .00000183  00000+0  45315-3 0  9992
2 48782  87.9074   0.3395 0001698  94.2415 265.8910 13.15548874177580
ONEWEB-0234             
1 48783U 21045S   25025.84098734  .00000128  00000+0  30563-3 0  9999
2 48783  87.9090   0.2028 0002931  74.0131 286.1322 13.15548348177773
ONEWEB-0238             
1 48784U 21045T   25025.87107450 -.00000120  00000+0 -35258-3 0  9999
2 48784  87.9089   0.2132 0001929  83.0795 277.0555 13.15548622177671
ONEWEB-0240             
1 48785U 21045U   25025.42425016  .00000001  00000+0 -32071-4 0  9990
2 48785  87.9086   0.2681 0002015  95.8652 264.2708 13.15549678177645
ONEWEB-0246             
1 48786U 21045V   25025.87504560 -.00000106  00000+0 -31675-3 0  9997
2 48786  87.9091   0.1865 0001658  87.6428 272.4892 13.15548248177576
